[{"OBJECT_NAME":"STARLINK-31290","OBJECT_ID":"2024-041M","EPOCH":"2026-03-09T00:25:18.892992","MEAN_MOTION":15.27576822,"ECCENTRICITY":0.00012823,"INCLINATION":43.0032,"RA_OF_ASC_NODE":300.2318,"ARG_OF_PERICENTER":262.0097,"MEAN_ANOMALY":98.061,"EPHEMERIS_TYPE":0,"CLASSIFICATION_TYPE":"U","NORAD_CAT_ID":59085,"ELEMENT_SET_NO":999,"REV_AT_EPOCH":11447,"BSTAR":-4.5297331e-5,"MEAN_MOTION_DOT":-1.508e-5,"MEAN_MOTION_DDOT":0},{"OBJECT_NAME":"PHISAT 2","OBJECT_ID":"2024-149C","EPOCH":"2026-03-09T18:55:12.732384","MEAN_MOTION":15.29548632,"ECCENTRICITY":0.00011753,"INCLINATION":97.3806,"RA_OF_ASC_NODE":148.6498,"ARG_OF_PERICENTER":168.623,"MEAN_ANOMALY":191.5037,"EPHEMERIS_TYPE":0,"CLASSIFICATION_TYPE":"U","NORAD_CAT_ID":60470,"ELEMENT_SET_NO":999,"REV_AT_EPOCH":8679,"BSTAR":0.00031420974,"MEAN_MOTION_DOT":8.925e-5,"MEAN_MOTION_DDOT":0}]
