STARLINK-31290          
1 59085U 24041M   26068.01757978 -.00001508  00000+0 -45297-4 0  9990
2 59085  43.0032 300.2318 0001282 262.0097  98.0610 15.27576822114473
PHISAT 2                
1 60470U 24149C   26068.78834181  .00008925  00000+0  31421-3 0  9996
2 60470  97.3806 148.6498 0001175 168.6230 191.5037 15.29548631 86792
